RSP-03                  
1 65732U 98067XL  26038.66413189  .00855179  35989-3  15498-2 0  9991
2 65732  51.6154 201.5272 0006927 291.4778  68.5493 16.00896236 22165
YOTSUBA-KULOVER         
1 65941U 98067XN  26038.56776926  .00146189  00000+0  11450-2 0  9993
2 65941  51.6241 212.2568 0004066 247.4596 112.5971 15.70598604 18757
BOTAN                   
1 65942U 98067XP  26038.64166956  .00363445  00000+0  15398-2 0  9990
2 65942  51.6181 208.2035 0006147 270.8199  89.2099 15.83788445 18812
E-KAGAKU-1              
1 65943U 98067XQ  26038.50486266  .00159163  00000+0  12502-2 0  9999
2 65943  51.6260 212.5982 0003452 263.4572  96.6032 15.70487632 18740
HRC MONOBLOCK CAMERA    
1 66052U 98067XR  26038.73144014  .00056667  00000+0  71236-3 0  9993
2 66052  51.6278 216.3622 0000807 355.3038   4.7947 15.59116661 17712
HTV-X1                  
1 66174U 25241A   26038.50283897  .00012054  00000+0  23050-3 0  9993
2 66174  51.6315 221.5822 0011000  74.6214 285.5989 15.48462076   510
SZ-21 MODULE            
1 66515U 25246C   26038.04255016  .00039980  00000+0  37769-3 0  9997
2 66515  41.4765  31.6776 0002982 280.6957  79.3548 15.66234853 13261
SHENZHOU-22             
1 66645U 25272A   26038.37011297  .00025203  00000+0  31398-3 0  9992
2 66645  41.4682  32.4562 0005154  20.8908 339.2140 15.59318584267644
SOYUZ-MS 28             
1 66664U 25275A   26038.50283896  .00012054  00000+0  23050-3 0  9993
2 66664  51.6315 221.5822 0011000  74.6214 285.5989 15.48462076551650
DUPLEX                  
1 66906U 98067XS  26038.70538848  .00042315  00000+0  64327-3 0  9998
2 66906  51.6287 219.1874 0001369  80.8869 279.2277 15.54118989 10466
ISS OBJECT XT           
1 66907U 98067XT  26038.50608215  .00139388  00000+0  15833-2 0  9997
2 66907  51.6269 218.6048 0002114 217.1792 142.9055 15.61360236 10454
ISS OBJECT XU           
1 66908U 98067XU  26038.69753200  .00125493  00000+0  14247-2 0  9993
2 66908  51.6264 217.6307 0001751 224.2792 135.8061 15.61430222 10486
