CCSDS_OMM_VERS = 2.0
CREATION_DATE  = 
ORIGINATOR     = 

OBJECT_NAME    = RSP-03
OBJECT_ID      = 1998-067XL
CENTER_NAME    = EARTH
REF_FRAME      = TEME
TIME_SYSTEM    = UTC
MEAN_ELEMENT_THEORY = SGP/SGP4

EPOCH          = 2026-02-07T15:56:20.995296
MEAN_MOTION    = 16.00896236
ECCENTRICITY   = .0006927
INCLINATION    = 51.6154
RA_OF_ASC_NODE = 201.5272
ARG_OF_PERICENTER = 291.4778
MEAN_ANOMALY   = 68.5493

EPHEMERIS_TYPE = 0
CLASSIFICATION_TYPE = U
NORAD_CAT_ID   = 65732
ELEMENT_SET_NO = 999
REV_AT_EPOCH   = 2216
BSTAR          = .15498E-2
MEAN_MOTION_DOT = .855179E-2
MEAN_MOTION_DDOT = .35989E-3

CCSDS_OMM_VERS = 2.0
CREATION_DATE  = 
ORIGINATOR     = 

OBJECT_NAME    = YOTSUBA-KULOVER
OBJECT_ID      = 1998-067XN
CENTER_NAME    = EARTH
REF_FRAME      = TEME
TIME_SYSTEM    = UTC
MEAN_ELEMENT_THEORY = SGP/SGP4

EPOCH          = 2026-02-07T13:37:35.264064
MEAN_MOTION    = 15.70598604
ECCENTRICITY   = .00040663
INCLINATION    = 51.6241
RA_OF_ASC_NODE = 212.2568
ARG_OF_PERICENTER = 247.4596
MEAN_ANOMALY   = 112.5971

EPHEMERIS_TYPE = 0
CLASSIFICATION_TYPE = U
NORAD_CAT_ID   = 65941
ELEMENT_SET_NO = 999
REV_AT_EPOCH   = 1875
BSTAR          = .11450463E-2
MEAN_MOTION_DOT = .146189E-2
MEAN_MOTION_DDOT = 0

CCSDS_OMM_VERS = 2.0
CREATION_DATE  = 
ORIGINATOR     = 

OBJECT_NAME    = BOTAN
OBJECT_ID      = 1998-067XP
CENTER_NAME    = EARTH
REF_FRAME      = TEME
TIME_SYSTEM    = UTC
MEAN_ELEMENT_THEORY = SGP/SGP4

EPOCH          = 2026-02-07T15:24:00.249984
MEAN_MOTION    = 15.83788445
ECCENTRICITY   = .00061471
INCLINATION    = 51.6181
RA_OF_ASC_NODE = 208.2035
ARG_OF_PERICENTER = 270.8199
MEAN_ANOMALY   = 89.2099

EPHEMERIS_TYPE = 0
CLASSIFICATION_TYPE = U
NORAD_CAT_ID   = 65942
ELEMENT_SET_NO = 999
REV_AT_EPOCH   = 1881
BSTAR          = .1539755E-2
MEAN_MOTION_DOT = .363445E-2
MEAN_MOTION_DDOT = 0

CCSDS_OMM_VERS = 2.0
CREATION_DATE  = 
ORIGINATOR     = 

OBJECT_NAME    = E-KAGAKU-1
OBJECT_ID      = 1998-067XQ
CENTER_NAME    = EARTH
REF_FRAME      = TEME
TIME_SYSTEM    = UTC
MEAN_ELEMENT_THEORY = SGP/SGP4

EPOCH          = 2026-02-07T12:07:00.133824
MEAN_MOTION    = 15.70487632
ECCENTRICITY   = .00034527
INCLINATION    = 51.6260
RA_OF_ASC_NODE = 212.5982
ARG_OF_PERICENTER = 263.4572
MEAN_ANOMALY   = 96.6032

EPHEMERIS_TYPE = 0
CLASSIFICATION_TYPE = U
NORAD_CAT_ID   = 65943
ELEMENT_SET_NO = 999
REV_AT_EPOCH   = 1874
BSTAR          = .12502155E-2
MEAN_MOTION_DOT = .159163E-2
MEAN_MOTION_DDOT = 0

CCSDS_OMM_VERS = 2.0
CREATION_DATE  = 
ORIGINATOR     = 

OBJECT_NAME    = HRC MONOBLOCK CAMERA
OBJECT_ID      = 1998-067XR
CENTER_NAME    = EARTH
REF_FRAME      = TEME
TIME_SYSTEM    = UTC
MEAN_ELEMENT_THEORY = SGP/SGP4

EPOCH          = 2026-02-07T17:33:16.428096
MEAN_MOTION    = 15.59116661
ECCENTRICITY   = .0000807
INCLINATION    = 51.6278
RA_OF_ASC_NODE = 216.3622
ARG_OF_PERICENTER = 355.3038
MEAN_ANOMALY   = 4.7947

EPHEMERIS_TYPE = 0
CLASSIFICATION_TYPE = U
NORAD_CAT_ID   = 66052
ELEMENT_SET_NO = 999
REV_AT_EPOCH   = 1771
BSTAR          = .71236E-3
MEAN_MOTION_DOT = .56667E-3
MEAN_MOTION_DDOT = 0

CCSDS_OMM_VERS = 2.0
CREATION_DATE  = 
ORIGINATOR     = 

OBJECT_NAME    = HTV-X1
OBJECT_ID      = 2025-241A
CENTER_NAME    = EARTH
REF_FRAME      = TEME
TIME_SYSTEM    = UTC
MEAN_ELEMENT_THEORY = SGP/SGP4

EPOCH          = 2026-02-07T12:04:05.287008
MEAN_MOTION    = 15.48462076
ECCENTRICITY   = .00110001
INCLINATION    = 51.6315
RA_OF_ASC_NODE = 221.5822
ARG_OF_PERICENTER = 74.6214
MEAN_ANOMALY   = 285.5989

EPHEMERIS_TYPE = 0
CLASSIFICATION_TYPE = U
NORAD_CAT_ID   = 66174
ELEMENT_SET_NO = 999
REV_AT_EPOCH   = 51
BSTAR          = .2304974E-3
MEAN_MOTION_DOT = .12054E-3
MEAN_MOTION_DDOT = 0

CCSDS_OMM_VERS = 2.0
CREATION_DATE  = 
ORIGINATOR     = 

OBJECT_NAME    = SZ-21 MODULE
OBJECT_ID      = 2025-246C
CENTER_NAME    = EARTH
REF_FRAME      = TEME
TIME_SYSTEM    = UTC
MEAN_ELEMENT_THEORY = SGP/SGP4

EPOCH          = 2026-02-07T01:01:16.333824
MEAN_MOTION    = 15.66234853
ECCENTRICITY   = .00029827
INCLINATION    = 41.4765
RA_OF_ASC_NODE = 31.6776
ARG_OF_PERICENTER = 280.6957
MEAN_ANOMALY   = 79.3548

EPHEMERIS_TYPE = 0
CLASSIFICATION_TYPE = U
NORAD_CAT_ID   = 66515
ELEMENT_SET_NO = 999
REV_AT_EPOCH   = 1326
BSTAR          = .37768938E-3
MEAN_MOTION_DOT = .3998E-3
MEAN_MOTION_DDOT = 0

CCSDS_OMM_VERS = 2.0
CREATION_DATE  = 
ORIGINATOR     = 

OBJECT_NAME    = SHENZHOU-22
OBJECT_ID      = 2025-272A
CENTER_NAME    = EARTH
REF_FRAME      = TEME
TIME_SYSTEM    = UTC
MEAN_ELEMENT_THEORY = SGP/SGP4

EPOCH          = 2026-02-07T08:52:57.760608
MEAN_MOTION    = 15.59318584
ECCENTRICITY   = .00051547
INCLINATION    = 41.4682
RA_OF_ASC_NODE = 32.4562
ARG_OF_PERICENTER = 20.8908
MEAN_ANOMALY   = 339.2140

EPHEMERIS_TYPE = 0
CLASSIFICATION_TYPE = U
NORAD_CAT_ID   = 66645
ELEMENT_SET_NO = 999
REV_AT_EPOCH   = 26764
BSTAR          = .3139778E-3
MEAN_MOTION_DOT = .25203E-3
MEAN_MOTION_DDOT = 0

CCSDS_OMM_VERS = 2.0
CREATION_DATE  = 
ORIGINATOR     = 

OBJECT_NAME    = SOYUZ-MS 28
OBJECT_ID      = 2025-275A
CENTER_NAME    = EARTH
REF_FRAME      = TEME
TIME_SYSTEM    = UTC
MEAN_ELEMENT_THEORY = SGP/SGP4

EPOCH          = 2026-02-07T12:04:05.286144
MEAN_MOTION    = 15.48462076
ECCENTRICITY   = .0011
INCLINATION    = 51.6315
RA_OF_ASC_NODE = 221.5822
ARG_OF_PERICENTER = 74.6214
MEAN_ANOMALY   = 285.5989

EPHEMERIS_TYPE = 0
CLASSIFICATION_TYPE = U
NORAD_CAT_ID   = 66664
ELEMENT_SET_NO = 999
REV_AT_EPOCH   = 55165
BSTAR          = .2305E-3
MEAN_MOTION_DOT = .12054E-3
MEAN_MOTION_DDOT = 0

CCSDS_OMM_VERS = 2.0
CREATION_DATE  = 
ORIGINATOR     = 

OBJECT_NAME    = DUPLEX
OBJECT_ID      = 1998-067XS
CENTER_NAME    = EARTH
REF_FRAME      = TEME
TIME_SYSTEM    = UTC
MEAN_ELEMENT_THEORY = SGP/SGP4

EPOCH          = 2026-02-07T16:55:45.564672
MEAN_MOTION    = 15.54118989
ECCENTRICITY   = .0001369
INCLINATION    = 51.6287
RA_OF_ASC_NODE = 219.1874
ARG_OF_PERICENTER = 80.8869
MEAN_ANOMALY   = 279.2277

EPHEMERIS_TYPE = 0
CLASSIFICATION_TYPE = U
NORAD_CAT_ID   = 66906
ELEMENT_SET_NO = 999
REV_AT_EPOCH   = 1046
BSTAR          = .64327E-3
MEAN_MOTION_DOT = .42315E-3
MEAN_MOTION_DDOT = 0

CCSDS_OMM_VERS = 2.0
CREATION_DATE  = 
ORIGINATOR     = 

OBJECT_NAME    = ISS OBJECT XT
OBJECT_ID      = 1998-067XT
CENTER_NAME    = EARTH
REF_FRAME      = TEME
TIME_SYSTEM    = UTC
MEAN_ELEMENT_THEORY = SGP/SGP4

EPOCH          = 2026-02-07T12:08:45.497760
MEAN_MOTION    = 15.61360236
ECCENTRICITY   = .0002114
INCLINATION    = 51.6269
RA_OF_ASC_NODE = 218.6048
ARG_OF_PERICENTER = 217.1792
MEAN_ANOMALY   = 142.9055

EPHEMERIS_TYPE = 0
CLASSIFICATION_TYPE = U
NORAD_CAT_ID   = 66907
ELEMENT_SET_NO = 999
REV_AT_EPOCH   = 1045
BSTAR          = .15832915E-2
MEAN_MOTION_DOT = .139388E-2
MEAN_MOTION_DDOT = 0

CCSDS_OMM_VERS = 2.0
CREATION_DATE  = 
ORIGINATOR     = 

OBJECT_NAME    = ISS OBJECT XU
OBJECT_ID      = 1998-067XU
CENTER_NAME    = EARTH
REF_FRAME      = TEME
TIME_SYSTEM    = UTC
MEAN_ELEMENT_THEORY = SGP/SGP4

EPOCH          = 2026-02-07T16:44:26.764800
MEAN_MOTION    = 15.61430222
ECCENTRICITY   = .0001751
INCLINATION    = 51.6264
RA_OF_ASC_NODE = 217.6307
ARG_OF_PERICENTER = 224.2792
MEAN_ANOMALY   = 135.8061

EPHEMERIS_TYPE = 0
CLASSIFICATION_TYPE = U
NORAD_CAT_ID   = 66908
ELEMENT_SET_NO = 999
REV_AT_EPOCH   = 1048
BSTAR          = .14247E-2
MEAN_MOTION_DOT = .125493E-2
MEAN_MOTION_DDOT = 0

